[{"OBJECT_NAME":"STARLINK-2462","OBJECT_ID":"2021-027AF","EPOCH":"2026-03-09T22:54:57.952224","MEAN_MOTION":15.30186477,"ECCENTRICITY":0.00014219,"INCLINATION":53.1605,"RA_OF_ASC_NODE":153.6981,"ARG_OF_PERICENTER":83.1591,"MEAN_ANOMALY":276.9571,"EPHEMERIS_TYPE":0,"CLASSIFICATION_TYPE":"U","NORAD_CAT_ID":48121,"ELEMENT_SET_NO":999,"REV_AT_EPOCH":27269,"BSTAR":0.00010217745,"MEAN_MOTION_DOT":2.667e-5,"MEAN_MOTION_DDOT":0},{"OBJECT_NAME":"COSMOS 1862","OBJECT_ID":"1987-055A","EPOCH":"2026-03-09T22:37:02.390592","MEAN_MOTION":15.30492139,"ECCENTRICITY":0.00097484,"INCLINATION":82.4856,"RA_OF_ASC_NODE":47.1862,"ARG_OF_PERICENTER":26.6325,"MEAN_ANOMALY":333.5414,"EPHEMERIS_TYPE":0,"CLASSIFICATION_TYPE":"U","NORAD_CAT_ID":18152,"ELEMENT_SET_NO":999,"REV_AT_EPOCH":8987,"BSTAR":0.00034125048,"MEAN_MOTION_DOT":0.00010107,"MEAN_MOTION_DDOT":0}]
